{
"type": "FeatureCollection",
"name": "Pilona_cable",
"crs": { "type": "name", "properties": { "name": "urn:ogc:def:crs:OGC:1.3:CRS84" } },
"features": [
{"type":"Feature","properties":{"longitud":-74.139839439999989,"latitud":4.56891198,"objectid":124,"cable":"Ciudad Bolivar","nom_traz":"Tunal - Juan Pablo II","esta_oper":1,"id_subtram":101,"eta_oper":1,"id_pilona":10101,"num_pil":1,"globalid":"{F9F715C1-85C6-45F2-82A6-F417651987AA}","created_user":null,"created_date":null,"last_edited_user":null,"last_edited_date":null},"geometry":{"type":"Point","coordinates":[-74.139839441944076,4.568911982927755,0.0]}},
{"type":"Feature","properties":{"longitud":-74.14663131,"latitud":4.55715781,"objectid":125,"cable":"Ciudad Bolivar","nom_traz":"Tunal - Juan Pablo II","esta_oper":1,"id_subtram":101,"eta_oper":1,"id_pilona":10109,"num_pil":9,"globalid":"{BFD9A8DB-BC6C-444F-A64F-A2EF769956FF}","created_user":null,"created_date":null,"last_edited_user":null,"last_edited_date":null},"geometry":{"type":"Point","coordinates":[-74.14663043286491,4.557159323308333,0.0]}},
{"type":"Feature","properties":{"longitud":-74.14721338,"latitud":4.55615043,"objectid":126,"cable":"Ciudad Bolivar","nom_traz":"Tunal - Juan Pablo II","esta_oper":1,"id_subtram":101,"eta_oper":1,"id_pilona":10110,"num_pil":10,"globalid":"{93349C88-DB12-43E8-B60D-6F7BB9333290}","created_user":null,"created_date":null,"last_edited_user":null,"last_edited_date":null},"geometry":{"type":"Point","coordinates":[-74.147241674614989,4.556101472104878,0.0]}},
{"type":"Feature","properties":{"longitud":-74.14726802,"latitud":4.55605588,"objectid":127,"cable":"Ciudad Bolivar","nom_traz":"Tunal - Juan Pablo II","esta_oper":1,"id_subtram":101,"eta_oper":1,"id_pilona":10111,"num_pil":11,"globalid":"{CB5728E5-3695-47D0-922B-9D3EC9A13FCD}","created_user":null,"created_date":null,"last_edited_user":null,"last_edited_date":null},"geometry":{"type":"Point","coordinates":[-74.147264933748176,4.556061218038326,0.0]}},
{"type":"Feature","properties":{"longitud":-74.14756976,"latitud":4.55552564,"objectid":128,"cable":"Ciudad Bolivar","nom_traz":"Juan Pablo II - Manitas","esta_oper":1,"id_subtram":102,"eta_oper":1,"id_pilona":10212,"num_pil":12,"globalid":"{505CECDB-744E-4306-ABBD-6DEBC53BA75B}","created_user":null,"created_date":null,"last_edited_user":null,"last_edited_date":null},"geometry":{"type":"Point","coordinates":[-74.147529738423742,4.555596953124289,0.0]}},
{"type":"Feature","properties":{"longitud":-74.14786566000001,"latitud":4.55499845,"objectid":129,"cable":"Ciudad Bolivar","nom_traz":"Juan Pablo II - Manitas","esta_oper":1,"id_subtram":102,"eta_oper":1,"id_pilona":10213,"num_pil":13,"globalid":"{0A1DBB51-AA80-4C15-8A99-72F364305F56}","created_user":null,"created_date":null,"last_edited_user":null,"last_edited_date":null},"geometry":{"type":"Point","coordinates":[-74.147868092222112,4.554994117784253,0.0]}},
{"type":"Feature","properties":{"longitud":-74.14817423,"latitud":4.55444868,"objectid":130,"cable":"Ciudad Bolivar","nom_traz":"Juan Pablo II - Manitas","esta_oper":1,"id_subtram":102,"eta_oper":1,"id_pilona":10214,"num_pil":14,"globalid":"{3624F575-0731-4C93-A1BF-5FB76C48B3C2}","created_user":null,"created_date":null,"last_edited_user":null,"last_edited_date":null},"geometry":{"type":"Point","coordinates":[-74.148178533866343,4.554441014023074,0.0]}},
{"type":"Feature","properties":{"longitud":-74.14903935,"latitud":4.55290732,"objectid":131,"cable":"Ciudad Bolivar","nom_traz":"Juan Pablo II - Manitas","esta_oper":1,"id_subtram":102,"eta_oper":1,"id_pilona":10215,"num_pil":15,"globalid":"{575941D9-AB24-4373-AE20-9D9EF5F76E95}","created_user":null,"created_date":null,"last_edited_user":null,"last_edited_date":null},"geometry":{"type":"Point","coordinates":[-74.149041673377099,4.552903177649897,0.0]}},
{"type":"Feature","properties":{"longitud":-74.1503276,"latitud":4.55061206,"objectid":132,"cable":"Ciudad Bolivar","nom_traz":"Juan Pablo II - Manitas","esta_oper":1,"id_subtram":102,"eta_oper":1,"id_pilona":10216,"num_pil":16,"globalid":"{1A67ACC9-1B2E-4E70-AC02-A7F1C2B8A4F8}","created_user":null,"created_date":null,"last_edited_user":null,"last_edited_date":null},"geometry":{"type":"Point","coordinates":[-74.150337670538335,4.550594114104004,0.0]}},
{"type":"Feature","properties":{"longitud":-74.15083032,"latitud":4.55026838,"objectid":133,"cable":"Ciudad Bolivar","nom_traz":"Manitas - Mirador Del Paraiso","esta_oper":1,"id_subtram":103,"eta_oper":1,"id_pilona":10317,"num_pil":17,"globalid":"{28ACB526-2AD9-465C-ACD8-73E77983418C}","created_user":null,"created_date":null,"last_edited_user":null,"last_edited_date":null},"geometry":{"type":"Point","coordinates":[-74.150806135712585,4.550268886947346,0.0]}},
{"type":"Feature","properties":{"longitud":-74.15098488,"latitud":4.55026513,"objectid":134,"cable":"Ciudad Bolivar","nom_traz":"Manitas - Mirador Del Paraiso","esta_oper":1,"id_subtram":103,"eta_oper":1,"id_pilona":10318,"num_pil":18,"globalid":"{35AE01A3-F914-4ED4-9657-3C435D2C0CF6}","created_user":null,"created_date":null,"last_edited_user":null,"last_edited_date":null},"geometry":{"type":"Point","coordinates":[-74.150977740459396,4.550265277523506,0.0]}},
{"type":"Feature","properties":{"longitud":-74.140163030000011,"latitud":4.56835198,"objectid":135,"cable":"Ciudad Bolivar","nom_traz":"Tunal - Juan Pablo II","esta_oper":1,"id_subtram":101,"eta_oper":1,"id_pilona":10102,"num_pil":2,"globalid":"{8E800F08-F1D7-432F-854E-3F4DCE5FAC63}","created_user":null,"created_date":null,"last_edited_user":null,"last_edited_date":null},"geometry":{"type":"Point","coordinates":[-74.140163034797794,4.568351975300965,0.0]}},
{"type":"Feature","properties":{"longitud":-74.15239654,"latitud":4.55023543,"objectid":136,"cable":"Ciudad Bolivar","nom_traz":"Manitas - Mirador Del Paraiso","esta_oper":1,"id_subtram":103,"eta_oper":1,"id_pilona":10319,"num_pil":19,"globalid":"{CD2CFFB8-8FE4-4671-92C5-2C1EA008DD18}","created_user":null,"created_date":null,"last_edited_user":null,"last_edited_date":null},"geometry":{"type":"Point","coordinates":[-74.152393221805568,4.550235501860701,0.0]}},
{"type":"Feature","properties":{"longitud":-74.1536941,"latitud":4.55020814,"objectid":137,"cable":"Ciudad Bolivar","nom_traz":"Manitas - Mirador Del Paraiso","esta_oper":1,"id_subtram":103,"eta_oper":1,"id_pilona":10320,"num_pil":20,"globalid":"{2D47E06A-613E-42CE-BA99-08C3BFD2CFEB}","created_user":null,"created_date":null,"last_edited_user":null,"last_edited_date":null},"geometry":{"type":"Point","coordinates":[-74.153697821182092,4.550208056530604,0.0]}},
{"type":"Feature","properties":{"longitud":-74.15467551,"latitud":4.55018749,"objectid":138,"cable":"Ciudad Bolivar","nom_traz":"Manitas - Mirador Del Paraiso","esta_oper":1,"id_subtram":103,"eta_oper":1,"id_pilona":10321,"num_pil":21,"globalid":"{C79CE174-5D78-4D8D-BDEB-F7468B120730}","created_user":null,"created_date":null,"last_edited_user":null,"last_edited_date":null},"geometry":{"type":"Point","coordinates":[-74.154668572013264,4.550187633227196,0.0]}},
{"type":"Feature","properties":{"longitud":-74.15644125,"latitud":4.55015034,"objectid":139,"cable":"Ciudad Bolivar","nom_traz":"Manitas - Mirador Del Paraiso","esta_oper":1,"id_subtram":103,"eta_oper":1,"id_pilona":10322,"num_pil":22,"globalid":"{8FF21906-7552-44EC-B0B4-0B0C1A72DCBD}","created_user":null,"created_date":null,"last_edited_user":null,"last_edited_date":null},"geometry":{"type":"Point","coordinates":[-74.156449568939834,4.550150159835325,0.0]}},
{"type":"Feature","properties":{"longitud":-74.15841289,"latitud":4.55010884,"objectid":140,"cable":"Ciudad Bolivar","nom_traz":"Manitas - Mirador Del Paraiso","esta_oper":1,"id_subtram":103,"eta_oper":1,"id_pilona":10323,"num_pil":23,"globalid":"{102436D0-A5C6-477C-A61B-4AE2A8C0321B}","created_user":null,"created_date":null,"last_edited_user":null,"last_edited_date":null},"geometry":{"type":"Point","coordinates":[-74.158412889231059,4.55010884537224,0.0]}},
{"type":"Feature","properties":{"longitud":-74.14082787,"latitud":4.56720142,"objectid":141,"cable":"Ciudad Bolivar","nom_traz":"Tunal - Juan Pablo II","esta_oper":1,"id_subtram":101,"eta_oper":1,"id_pilona":10103,"num_pil":3,"globalid":"{C186856A-D0B7-4AA2-B0A2-498B3D0EB417}","created_user":null,"created_date":null,"last_edited_user":null,"last_edited_date":null},"geometry":{"type":"Point","coordinates":[-74.140864750567701,4.567137586281106,0.0]}},
{"type":"Feature","properties":{"longitud":-74.14158087,"latitud":4.56589827,"objectid":142,"cable":"Ciudad Bolivar","nom_traz":"Tunal - Juan Pablo II","esta_oper":1,"id_subtram":101,"eta_oper":1,"id_pilona":10104,"num_pil":4,"globalid":"{1ABBA7F3-06D3-4C80-B361-AA1BC2B8B6D1}","created_user":null,"created_date":null,"last_edited_user":null,"last_edited_date":null},"geometry":{"type":"Point","coordinates":[-74.141580869459901,4.565898267032513,0.0]}},
{"type":"Feature","properties":{"longitud":-74.14255062,"latitud":4.56422001,"objectid":143,"cable":"Ciudad Bolivar","nom_traz":"Tunal - Juan Pablo II","esta_oper":1,"id_subtram":101,"eta_oper":1,"id_pilona":10105,"num_pil":5,"globalid":"{EB9DEC65-D91D-4AD9-8D36-BFDA5385259A}","created_user":null,"created_date":null,"last_edited_user":null,"last_edited_date":null},"geometry":{"type":"Point","coordinates":[-74.142569244283393,4.564187770763914,0.0]}},
{"type":"Feature","properties":{"longitud":-74.14347918,"latitud":4.56261301,"objectid":144,"cable":"Ciudad Bolivar","nom_traz":"Tunal - Juan Pablo II","esta_oper":1,"id_subtram":101,"eta_oper":1,"id_pilona":10106,"num_pil":6,"globalid":"{8961A0B3-BA10-4707-A06B-E3D7A689B29B}","created_user":null,"created_date":null,"last_edited_user":null,"last_edited_date":null},"geometry":{"type":"Point","coordinates":[-74.143483513690398,4.562605514910739,0.0]}},
{"type":"Feature","properties":{"longitud":-74.14435806,"latitud":4.561092,"objectid":145,"cable":"Ciudad Bolivar","nom_traz":"Tunal - Juan Pablo II","esta_oper":1,"id_subtram":101,"eta_oper":1,"id_pilona":10107,"num_pil":7,"globalid":"{6DC0D161-BAE3-4F7A-9196-254043FD1145}","created_user":null,"created_date":null,"last_edited_user":null,"last_edited_date":null},"geometry":{"type":"Point","coordinates":[-74.144358061014501,4.561091996484541,0.0]}},
{"type":"Feature","properties":{"longitud":-74.14514877000001,"latitud":4.55972356,"objectid":146,"cable":"Ciudad Bolivar","nom_traz":"Tunal - Juan Pablo II","esta_oper":1,"id_subtram":101,"eta_oper":1,"id_pilona":10108,"num_pil":8,"globalid":"{C1244237-2BA5-4160-8C15-0E5D9BE702C6}","created_user":null,"created_date":null,"last_edited_user":null,"last_edited_date":null},"geometry":{"type":"Point","coordinates":[-74.14514819525786,4.559724559272209,0.0]}}
]
}
